[{"OBJECT_NAME":"HERMES-2","OBJECT_ID":"2025-052AK","EPOCH":"2026-03-09T22:17:00.130272","MEAN_MOTION":15.28021069,"ECCENTRICITY":0.00063399,"INCLINATION":97.4004,"RA_OF_ASC_NODE":324.4926,"ARG_OF_PERICENTER":99.416,"MEAN_ANOMALY":260.7796,"EPHEMERIS_TYPE":0,"CLASSIFICATION_TYPE":"U","NORAD_CAT_ID":63243,"ELEMENT_SET_NO":999,"REV_AT_EPOCH":5485,"BSTAR":0.00034839454,"MEAN_MOTION_DOT":9.456e-5,"MEAN_MOTION_DDOT":0},{"OBJECT_NAME":"STARLINK-35597","OBJECT_ID":"2025-263J","EPOCH":"2026-03-09T03:40:25.375872","MEAN_MOTION":15.27605625,"ECCENTRICITY":0.00013106,"INCLINATION":43.0012,"RA_OF_ASC_NODE":354.0031,"ARG_OF_PERICENTER":261.5589,"MEAN_ANOMALY":98.5114,"EPHEMERIS_TYPE":0,"CLASSIFICATION_TYPE":"U","NORAD_CAT_ID":66493,"ELEMENT_SET_NO":999,"REV_AT_EPOCH":1881,"BSTAR":0.0015118781,"MEAN_MOTION_DOT":0.00041609,"MEAN_MOTION_DDOT":0}]
